{"type": "FeatureCollection", "features": [ {"type": "Feature", "properties": {"norad_id": 30467, "name": "FENGYUN 1C DEB", "group": "fengyun-1c-debris", "lat": 9.083627169295411, "lon": 26.282961772680142, "alt_km": 826.9898478184214, "timestamp": "2025-12-26T11:25:45.470934+00:00", "meta": {"OBJECT_NAME": "FENGYUN 1C DEB", "OBJECT_ID": "1999-025AGE", "EPOCH": "2025-12-26T01:20:58.991712", "MEAN_MOTION": 14.17319356, "ECCENTRICITY": 0.0065118, "INCLINATION": 98.6777, "RA_OF_ASC_NODE": 27.2721, "ARG_OF_PERICENTER": 89.714, "MEAN_ANOMALY": 298.6299, "EPHEMERIS_TYPE": 0, "CLASSIFICATION_TYPE": "U", "NORAD_CAT_ID": 30467, "ELEMENT_SET_NO": 999, "REV_AT_EPOCH": 97366, "BSTAR": 0.00080248, "MEAN_MOTION_DOT": 1.614e-05, "MEAN_MOTION_DDOT": 0}, "tle": {"line1": "1 30467U 99025AGE 25360.05623833  .00001614  00000+0  80248-3 0  9997", "line2": "2 30467  98.6777  27.2721 0065118  89.7140 298.6299 14.17319356973663"}}, "geometry": {"type": "Point", "coordinates": [26.282961772680142, 9.083627169295411]}}, {"type": "Feature", "properties": {"norad_id": 30468, "name": "FENGYUN 1C DEB", "group": "fengyun-1c-debris", "lat": 47.86542172189855, "lon": -87.90000226191201, "alt_km": 852.1130118875535, "timestamp": "2025-12-26T11:25:45.470943+00:00", "meta": {"OBJECT_NAME": "FENGYUN 1C DEB", "OBJECT_ID": "1999-025AGF", "EPOCH": "2025-12-26T01:06:45.377856", "MEAN_MOTION": 14.20787912, "ECCENTRICITY": 0.0071311, "INCLINATION": 98.9212, "RA_OF_ASC_NODE": 81.6674, "ARG_OF_PERICENTER": 1.122, "MEAN_ANOMALY": 92.0986, "EPHEMERIS_TYPE": 0, "CLASSIFICATION_TYPE": "U", "NORAD_CAT_ID": 30468, "ELEMENT_SET_NO": 999, "REV_AT_EPOCH": 96999, "BSTAR": 0.0014151, "MEAN_MOTION_DOT": 3.09e-05, "MEAN_MOTION_DDOT": 0}, "tle": {"line1": "1 30468U 99025AGF 25360.04635854  .00003090  00000+0  14151-2 0  9992", "line2": "2 30468  98.9212  81.6674 0071311   1.1220  92.0986 14.20787912969992"}}, "geometry": {"type": "Point", "coordinates": [-87.90000226191201, 47.86542172189855]}}, {"type": "Feature", "properties": {"norad_id": 30469, "name": "FENGYUN 1C DEB", "group": "fengyun-1c-debris", "lat": 0.41184836001236846, "lon": -149.94650778796176, "alt_km": 982.9746015484179, "timestamp": "2025-12-26T11:25:45.470952+00:00", "meta": {"OBJECT_NAME": "FENGYUN 1C DEB", "OBJECT_ID": "1999-025AGG", "EPOCH": "2025-12-26T03:26:16.721376", "MEAN_MOTION": 13.96545194, "ECCENTRICITY": 0.0158745, "INCLINATION": 98.4785, "RA_OF_ASC_NODE": 209.8079, "ARG_OF_PERICENTER": 132.1651, "MEAN_ANOMALY": 356.6498, "EPHEMERIS_TYPE": 0, "CLASSIFICATION_TYPE": "U", "NORAD_CAT_ID": 30469, "ELEMENT_SET_NO": 999, "REV_AT_EPOCH": 95893, "BSTAR": 0.00058286, "MEAN_MOTION_DOT": 8.59e-06, "MEAN_MOTION_DDOT": 0}, "tle": {"line1": "1 30469U 99025AGG 25360.14324909  .00000859  00000+0  58286-3 0  9998", "line2": "2 30469  98.4785 209.8079 0158745 132.1651 356.6498 13.96545194958931"}}, "geometry": {"type": "Point", "coordinates": [-149.94650778796176, 0.41184836001236846]}}, {"type": "Feature", "properties": {"norad_id": 30471, "name": "FENGYUN 1C DEB", "group": "fengyun-1c-debris", "lat": -42.0945162033058, "lon": -100.03449003338059, "alt_km": 793.3156102235171, "timestamp": "2025-12-26T11:25:45.470961+00:00", "meta": {"OBJECT_NAME": "FENGYUN 1C DEB", "OBJECT_ID": "1999-025AGJ", "EPOCH": "2025-12-25T19:41:31.435872", "MEAN_MOTION": 14.13710334, "ECCENTRICITY": 0.00836033, "INCLINATION": 99.0541, "RA_OF_ASC_NODE": 87.584, "ARG_OF_PERICENTER": 217.1063, "MEAN_ANOMALY": 270.0922, "EPHEMERIS_TYPE": 0, "CLASSIFICATION_TYPE": "U", "NORAD_CAT_ID": 30471, "ELEMENT_SET_NO": 999, "REV_AT_EPOCH": 96627, "BSTAR": 0.0017831112, "MEAN_MOTION_DOT": 3.439e-05, "MEAN_MOTION_DDOT": 0}, "tle": {"line1": "1 30471U 99025AGJ 25359.82050273  .00003439  00000+0  17831-2 0  9991", "line2": "2 30471  99.0541  87.5840 0083603 217.1063 270.0922 14.13710334966276"}}, "geometry": {"type": "Point", "coordinates": [-100.03449003338059, -42.0945162033058]}}, {"type": "Feature", "properties": {"norad_id": 30472, "name": "FENGYUN 1C DEB", "group": "fengyun-1c-debris", "lat": 22.725495832688075, "lon": -74.3064730671934, "alt_km": 725.3159596661362, "timestamp": "2025-12-26T11:25:45.470970+00:00", "meta": {"OBJECT_NAME": "FENGYUN 1C DEB", "OBJECT_ID": "1999-025AGK", "EPOCH": "2025-12-25T06:55:27.417792", "MEAN_MOTION": 14.54011312, "ECCENTRICITY": 0.0037352, "INCLINATION": 98.651, "RA_OF_ASC_NODE": 100.8107, "ARG_OF_PERICENTER": 40.4281, "MEAN_ANOMALY": 22.6733, "EPHEMERIS_TYPE": 0, "CLASSIFICATION_TYPE": "U", "NORAD_CAT_ID": 30472, "ELEMENT_SET_NO": 999, "REV_AT_EPOCH": 98223, "BSTAR": 0.0022983, "MEAN_MOTION_DOT": 9.743e-05, "MEAN_MOTION_DDOT": 0}, "tle": {"line1": "1 30472U 99025AGK 25359.28851178  .00009743  00000+0  22983-2 0  9993", "line2": "2 30472  98.6510 100.8107 0037352  40.4281  22.6733 14.54011312982232"}}, "geometry": {"type": "Point", "coordinates": [-74.3064730671934, 22.725495832688075]}}, {"type": "Feature", "properties": {"norad_id": 30474, "name": "FENGYUN 1C DEB", "group": "fengyun-1c-debris", "lat": -40.54509794601236, "lon": 87.61705543245402, "alt_km": 755.175205963661, "timestamp": "2025-12-26T11:25:45.470979+00:00", "meta": {"OBJECT_NAME": "FENGYUN 1C DEB", "OBJECT_ID": "1999-025AGM", "EPOCH": "2025-12-24T18:26:11.877792", "MEAN_MOTION": 14.37907205, "ECCENTRICITY": 0.00233297, "INCLINATION": 98.9276, "RA_OF_ASC_NODE": 78.1156, "ARG_OF_PERICENTER": 324.5532, "MEAN_ANOMALY": 157.8099, "EPHEMERIS_TYPE": 0, "CLASSIFICATION_TYPE": "U", "NORAD_CAT_ID": 30474, "ELEMENT_SET_NO": 999, "REV_AT_EPOCH": 97566, "BSTAR": 0.002238677, "MEAN_MOTION_DOT": 6.738e-05, "MEAN_MOTION_DDOT": 0}, "tle": {"line1": "1 30474U 99025AGM 25358.76819303  .00006738  00000+0  22387-2 0  9990", "line2": "2 30474  98.9276  78.1156 0023329 324.5532 157.8099 14.37907205975662"}}, "geometry": {"type": "Point", "coordinates": [87.61705543245402, -40.54509794601236]}}, {"type": "Feature", "properties": {"norad_id": 30475, "name": "FENGYUN 1C DEB", "group": "fengyun-1c-debris", "lat": 9.410297993598562, "lon": 40.337867300086536, "alt_km": 856.2607598797204, "timestamp": "2025-12-26T11:25:45.470988+00:00", "meta": {"OBJECT_NAME": "FENGYUN 1C DEB", "OBJECT_ID": "1999-025AGN", "EPOCH": "2025-12-26T01:20:34.632096", "MEAN_MOTION": 14.15719316, "ECCENTRICITY": 0.0043199, "INCLINATION": 98.787, "RA_OF_ASC_NODE": 41.3925, "ARG_OF_PERICENTER": 252.2931, "MEAN_ANOMALY": 136.1919, "EPHEMERIS_TYPE": 0, "CLASSIFICATION_TYPE": "U", "NORAD_CAT_ID": 30475, "ELEMENT_SET_NO": 999, "REV_AT_EPOCH": 97140, "BSTAR": 0.00072348, "MEAN_MOTION_DOT": 1.388e-05, "MEAN_MOTION_DDOT": 0}, "tle": {"line1": "1 30475U 99025AGN 25360.05595639  .00001388  00000+0  72348-3 0  9998", "line2": "2 30475  98.7870  41.3925 0043199 252.2931 136.1919 14.15719316971403"}}, "geometry": {"type": "Point", "coordinates": [40.337867300086536, 9.410297993598562]}}, {"type": "Feature", "properties": {"norad_id": 30476, "name": "FENGYUN 1C DEB", "group": "fengyun-1c-debris", "lat": 26.563814465896893, "lon": 33.50640573869111, "alt_km": 840.6547212765417, "timestamp": "2025-12-26T11:25:45.470997+00:00", "meta": {"OBJECT_NAME": "FENGYUN 1C DEB", "OBJECT_ID": "1999-025AGP", "EPOCH": "2025-12-26T01:18:14.531904", "MEAN_MOTION": 14.20986918, "ECCENTRICITY": 0.0045447, "INCLINATION": 99.1241, "RA_OF_ASC_NODE": 37.6796, "ARG_OF_PERICENTER": 261.0177, "MEAN_ANOMALY": 128.6192, "EPHEMERIS_TYPE": 0, "CLASSIFICATION_TYPE": "U", "NORAD_CAT_ID": 30476, "ELEMENT_SET_NO": 999, "REV_AT_EPOCH": 97034, "BSTAR": 0.0013594, "MEAN_MOTION_DOT": 2.93e-05, "MEAN_MOTION_DDOT": 0}, "tle": {"line1": "1 30476U 99025AGP 25360.05433486  .00002930  00000+0  13594-2 0  9991", "line2": "2 30476  99.1241  37.6796 0045447 261.0177 128.6192 14.20986918970344"}}, "geometry": {"type": "Point", "coordinates": [33.50640573869111, 26.563814465896893]}}, {"type": "Feature", "properties": {"norad_id": 30477, "name": "FENGYUN 1C DEB", "group": "fengyun-1c-debris", "lat": -75.13169961208709, "lon": 120.96669764902389, "alt_km": 911.3416054564705, "timestamp": "2025-12-26T11:25:45.471006+00:00", "meta": {"OBJECT_NAME": "FENGYUN 1C DEB", "OBJECT_ID": "1999-025AGQ", "EPOCH": "2025-12-24T17:06:57.740256", "MEAN_MOTION": 13.23866384, "ECCENTRICITY": 0.04352706, "INCLINATION": 99.4248, "RA_OF_ASC_NODE": 80.6407, "ARG_OF_PERICENTER": 248.3323, "MEAN_ANOMALY": 271.9302, "EPHEMERIS_TYPE": 0, "CLASSIFICATION_TYPE": "U", "NORAD_CAT_ID": 30477, "ELEMENT_SET_NO": 999, "REV_AT_EPOCH": 90877, "BSTAR": 0.0027412975, "MEAN_MOTION_DOT": 1.894e-05, "MEAN_MOTION_DDOT": 0}, "tle": {"line1": "1 30477U 99025AGQ 25358.71316829  .00001894  00000+0  27413-2 0  9996", "line2": "2 30477  99.4248  80.6407 0435270 248.3323 271.9302 13.23866384908779"}}, "geometry": {"type": "Point", "coordinates": [120.96669764902389, -75.13169961208709]}}, {"type": "Feature", "properties": {"norad_id": 30480, "name": "FENGYUN 1C DEB", "group": "fengyun-1c-debris", "lat": 26.602443789029685, "lon": 10.461968946763816, "alt_km": 751.593524323127, "timestamp": "2025-12-26T11:25:45.471015+00:00", "meta": {"OBJECT_NAME": "FENGYUN 1C DEB", "OBJECT_ID": "1999-025AGS", "EPOCH": "2025-12-25T23:51:02.241216", "MEAN_MOTION": 14.33617129, "ECCENTRICITY": 0.0166785, "INCLINATION": 98.2233, "RA_OF_ASC_NODE": 14.1564, "ARG_OF_PERICENTER": 106.2806, "MEAN_ANOMALY": 314.118, "EPHEMERIS_TYPE": 0, "CLASSIFICATION_TYPE": "U", "NORAD_CAT_ID": 30480, "ELEMENT_SET_NO": 999, "REV_AT_EPOCH": 98858, "BSTAR": 0.00020659, "MEAN_MOTION_DOT": 6.25e-06, "MEAN_MOTION_DDOT": 0}, "tle": {"line1": "1 30480U 99025AGS 25359.99377594  .00000625  00000+0  20659-3 0  9994", "line2": "2 30480  98.2233  14.1564 0166785 106.2806 314.1180 14.33617129988584"}}, "geometry": {"type": "Point", "coordinates": [10.461968946763816, 26.602443789029685]}}]}